STARLINK-1139
1 15065C 20006X   21326.15007230  .00002802  00000-0  18775-3 0  3267
2 15065  53.0537 108.0805 0001456  85.3323  36.2368 15.06397770    11
